COSMOS 2251 DEB         
1 33830U 93036BX  26064.45682294  .00007226  00000+0  98856-3 0  9991
2 33830  74.0305  68.0335 0041354 172.8324 339.1403 14.78099086906939
COSMOS 2251 DEB         
1 33832U 93036BZ  26064.40493030  .00010116  00000+0  20180-2 0  9992
2 33832  74.0543  52.0779 0019771  59.2874  90.9853 14.61925594896322
COSMOS 2251 DEB         
1 33835U 93036CC  26064.67573422  .00004566  00000+0  87407-3 0  9996
2 33835  74.0569 302.3616 0054451 332.2925  57.9923 14.63170449900026
COSMOS 2251 DEB         
1 33836U 93036CD  26064.50340713  .00010688  00000+0  13612-2 0  9992
2 33836  73.9945  95.4160 0027243 284.1600 194.0102 14.81363891653135
COSMOS 2251 DEB         
1 33837U 93036CE  26064.59123280  .00001266  00000+0  32557-3 0  9992
2 33837  74.0095 259.5868 0033446 101.4899 259.0021 14.50902290899979
COSMOS 2251 DEB         
1 33838U 93036CF  26064.57392203  .00002099  00000+0  56240-3 0  9994
2 33838  74.0395 354.6474 0025182  97.4415  82.4208 14.48662680897683
COSMOS 2251 DEB         
1 33839U 93036CG  26064.70454667  .00001617  00000+0  29459-3 0  9990
2 33839  74.0386  47.0204 0083045 139.5026  38.8526 14.64711688907946
COSMOS 2251 DEB         
1 33841U 93036CJ  26064.62008365  .00000731  00000+0  24978-3 0  9991
2 33841  74.0368 125.4355 0020885 194.0000 327.3929 14.37993473893051
COSMOS 2251 DEB         
1 33842U 93036CK  26064.67584517  .00001202  00000+0  36287-3 0  9995
2 33842  74.0316  65.6800 0046134 156.2021 204.1283 14.42910855895330
COSMOS 2251 DEB         
1 33844U 93036CM  26064.66330473  .00001257  00000+0  45384-3 0  9994
2 33844  74.0638 261.3557 0048842 263.4035 166.1512 14.33948038889145
COSMOS 2251 DEB         
1 33848U 93036CR  26064.72111693  .00005742  00000+0  16413-2 0  9999
2 33848  74.0316 203.1544 0043484 243.3918 224.5968 14.44757575890294
COSMOS 2251 DEB         
1 33892U 93036CV  26064.13637338  .00001582  00000+0  66028-3 0  9998
2 33892  73.8035 311.7044 0113583 327.5545 185.5501 14.23662876881271
COSMOS 2251 DEB         
1 33894U 93036CX  26064.58360020  .00003166  00000+0  32531-2 0  9991
2 33894  73.7643 220.8872 0572265 128.4710 236.9173 13.21487807818029
COSMOS 2251 DEB         
1 33896U 93036CZ  26064.30236032  .00001313  00000+0  58935-3 0  9997
2 33896  73.7689   6.7492 0126144 169.6873 345.1263 14.19326038879114
COSMOS 2251 DEB         
1 33899U 93036DC  26064.69598384  .00003268  00000+0  64312-3 0  9990
2 33899  74.0518 287.1790 0057061 326.6789 107.7694 14.61976562900519
COSMOS 2251 DEB         
1 33900U 93036DD  26064.64555030  .00003021  00000+0  64271-3 0  9990
2 33900  74.0186 201.8516 0048480 330.6129  45.4573 14.58750820902452
