[{"OBJECT_NAME":"COSMOS 2251 DEB","OBJECT_ID":"1993-036BX","EPOCH":"2026-03-05T10:57:49.502016","MEAN_MOTION":14.78099086,"ECCENTRICITY":0.0041354,"INCLINATION":74.0305,"RA_OF_ASC_NODE":68.0335,"ARG_OF_PERICENTER":172.8324,"MEAN_ANOMALY":339.1403,"EPHEMERIS_TYPE":0,"CLASSIFICATION_TYPE":"U","NORAD_CAT_ID":33830,"ELEMENT_SET_NO":999,"REV_AT_EPOCH":90693,"BSTAR":0.00098856,"MEAN_MOTION_DOT":7.226e-5,"MEAN_MOTION_DDOT":0},{"OBJECT_NAME":"COSMOS 2251 DEB","OBJECT_ID":"1993-036BZ","EPOCH":"2026-03-05T09:43:05.977920","MEAN_MOTION":14.61925594,"ECCENTRICITY":0.0019771,"INCLINATION":74.0543,"RA_OF_ASC_NODE":52.0779,"ARG_OF_PERICENTER":59.2874,"MEAN_ANOMALY":90.9853,"EPHEMERIS_TYPE":0,"CLASSIFICATION_TYPE":"U","NORAD_CAT_ID":33832,"ELEMENT_SET_NO":999,"REV_AT_EPOCH":89632,"BSTAR":0.002018,"MEAN_MOTION_DOT":0.00010116,"MEAN_MOTION_DDOT":0},{"OBJECT_NAME":"COSMOS 2251 DEB","OBJECT_ID":"1993-036CC","EPOCH":"2026-03-05T16:13:03.436608","MEAN_MOTION":14.63170449,"ECCENTRICITY":0.0054451,"INCLINATION":74.0569,"RA_OF_ASC_NODE":302.3616,"ARG_OF_PERICENTER":332.2925,"MEAN_ANOMALY":57.9923,"EPHEMERIS_TYPE":0,"CLASSIFICATION_TYPE":"U","NORAD_CAT_ID":33835,"ELEMENT_SET_NO":999,"REV_AT_EPOCH":90002,"BSTAR":0.00087407,"MEAN_MOTION_DOT":4.566e-5,"MEAN_MOTION_DDOT":0},{"OBJECT_NAME":"COSMOS 2251 DEB","OBJECT_ID":"1993-036CD","EPOCH":"2026-03-05T12:04:54.376032","MEAN_MOTION":14.81363891,"ECCENTRICITY":0.0027243,"INCLINATION":73.9945,"RA_OF_ASC_NODE":95.416,"ARG_OF_PERICENTER":284.16,"MEAN_ANOMALY":194.0102,"EPHEMERIS_TYPE":0,"CLASSIFICATION_TYPE":"U","NORAD_CAT_ID":33836,"ELEMENT_SET_NO":999,"REV_AT_EPOCH":65313,"BSTAR":0.0013612,"MEAN_MOTION_DOT":0.00010688,"MEAN_MOTION_DDOT":0},{"OBJECT_NAME":"COSMOS 2251 DEB","OBJECT_ID":"1993-036CE","EPOCH":"2026-03-05T14:11:22.513920","MEAN_MOTION":14.5090229,"ECCENTRICITY":0.0033446,"INCLINATION":74.0095,"RA_OF_ASC_NODE":259.5868,"ARG_OF_PERICENTER":101.4899,"MEAN_ANOMALY":259.0021,"EPHEMERIS_TYPE":0,"CLASSIFICATION_TYPE":"U","NORAD_CAT_ID":33837,"ELEMENT_SET_NO":999,"REV_AT_EPOCH":89997,"BSTAR":0.00032557,"MEAN_MOTION_DOT":1.266e-5,"MEAN_MOTION_DDOT":0},{"OBJECT_NAME":"COSMOS 2251 DEB","OBJECT_ID":"1993-036CF","EPOCH":"2026-03-05T13:46:26.863392","MEAN_MOTION":14.4866268,"ECCENTRICITY":0.0025182,"INCLINATION":74.0395,"RA_OF_ASC_NODE":354.6474,"ARG_OF_PERICENTER":97.4415,"MEAN_ANOMALY":82.4208,"EPHEMERIS_TYPE":0,"CLASSIFICATION_TYPE":"U","NORAD_CAT_ID":33838,"ELEMENT_SET_NO":999,"REV_AT_EPOCH":89768,"BSTAR":0.0005624,"MEAN_MOTION_DOT":2.099e-5,"MEAN_MOTION_DDOT":0},{"OBJECT_NAME":"COSMOS 2251 DEB","OBJECT_ID":"1993-036CG","EPOCH":"2026-03-05T16:54:32.832288","MEAN_MOTION":14.64711688,"ECCENTRICITY":0.0083045,"INCLINATION":74.0386,"RA_OF_ASC_NODE":47.0204,"ARG_OF_PERICENTER":139.5026,"MEAN_ANOMALY":38.8526,"EPHEMERIS_TYPE":0,"CLASSIFICATION_TYPE":"U","NORAD_CAT_ID":33839,"ELEMENT_SET_NO":999,"REV_AT_EPOCH":90794,"BSTAR":0.00029459,"MEAN_MOTION_DOT":1.617e-5,"MEAN_MOTION_DDOT":0},{"OBJECT_NAME":"COSMOS 2251 DEB","OBJECT_ID":"1993-036CJ","EPOCH":"2026-03-05T14:52:55.227360","MEAN_MOTION":14.37993473,"ECCENTRICITY":0.0020885,"INCLINATION":74.0368,"RA_OF_ASC_NODE":125.4355,"ARG_OF_PERICENTER":194,"MEAN_ANOMALY":327.3929,"EPHEMERIS_TYPE":0,"CLASSIFICATION_TYPE":"U","NORAD_CAT_ID":33841,"ELEMENT_SET_NO":999,"REV_AT_EPOCH":89305,"BSTAR":0.00024978,"MEAN_MOTION_DOT":7.31e-6,"MEAN_MOTION_DDOT":0},{"OBJECT_NAME":"COSMOS 2251 DEB","OBJECT_ID":"1993-036CK","EPOCH":"2026-03-05T16:13:13.022688","MEAN_MOTION":14.42910855,"ECCENTRICITY":0.0046134,"INCLINATION":74.0316,"RA_OF_ASC_NODE":65.68,"ARG_OF_PERICENTER":156.2021,"MEAN_ANOMALY":204.1283,"EPHEMERIS_TYPE":0,"CLASSIFICATION_TYPE":"U","NORAD_CAT_ID":33842,"ELEMENT_SET_NO":999,"REV_AT_EPOCH":89533,"BSTAR":0.00036287,"MEAN_MOTION_DOT":1.202e-5,"MEAN_MOTION_DDOT":0},{"OBJECT_NAME":"COSMOS 2251 DEB","OBJECT_ID":"1993-036CM","EPOCH":"2026-03-05T15:55:09.528672","MEAN_MOTION":14.33948038,"ECCENTRICITY":0.0048842,"INCLINATION":74.0638,"RA_OF_ASC_NODE":261.3557,"ARG_OF_PERICENTER":263.4035,"MEAN_ANOMALY":166.1512,"EPHEMERIS_TYPE":0,"CLASSIFICATION_TYPE":"U","NORAD_CAT_ID":33844,"ELEMENT_SET_NO":999,"REV_AT_EPOCH":88914,"BSTAR":0.00045384,"MEAN_MOTION_DOT":1.257e-5,"MEAN_MOTION_DDOT":0},{"OBJECT_NAME":"COSMOS 2251 DEB","OBJECT_ID":"1993-036CR","EPOCH":"2026-03-05T17:18:24.502752","MEAN_MOTION":14.44757575,"ECCENTRICITY":0.0043484,"INCLINATION":74.0316,"RA_OF_ASC_NODE":203.1544,"ARG_OF_PERICENTER":243.3918,"MEAN_ANOMALY":224.5968,"EPHEMERIS_TYPE":0,"CLASSIFICATION_TYPE":"U","NORAD_CAT_ID":33848,"ELEMENT_SET_NO":999,"REV_AT_EPOCH":89029,"BSTAR":0.0016413,"MEAN_MOTION_DOT":5.742e-5,"MEAN_MOTION_DDOT":0},{"OBJECT_NAME":"COSMOS 2251 DEB","OBJECT_ID":"1993-036CV","EPOCH":"2026-03-05T03:16:22.660032","MEAN_MOTION":14.23662876,"ECCENTRICITY":0.01135833,"INCLINATION":73.8035,"RA_OF_ASC_NODE":311.7044,"ARG_OF_PERICENTER":327.5545,"MEAN_ANOMALY":185.5501,"EPHEMERIS_TYPE":0,"CLASSIFICATION_TYPE":"U","NORAD_CAT_ID":33892,"ELEMENT_SET_NO":999,"REV_AT_EPOCH":88127,"BSTAR":0.00066028203,"MEAN_MOTION_DOT":1.582e-5,"MEAN_MOTION_DDOT":0},{"OBJECT_NAME":"COSMOS 2251 DEB","OBJECT_ID":"1993-036CX","EPOCH":"2026-03-05T14:00:23.057280","MEAN_MOTION":13.21487807,"ECCENTRICITY":0.0572265,"INCLINATION":73.7643,"RA_OF_ASC_NODE":220.8872,"ARG_OF_PERICENTER":128.471,"MEAN_ANOMALY":236.9173,"EPHEMERIS_TYPE":0,"CLASSIFICATION_TYPE":"U","NORAD_CAT_ID":33894,"ELEMENT_SET_NO":999,"REV_AT_EPOCH":81802,"BSTAR":0.0032531,"MEAN_MOTION_DOT":3.166e-5,"MEAN_MOTION_DDOT":0},{"OBJECT_NAME":"COSMOS 2251 DEB","OBJECT_ID":"1993-036CZ","EPOCH":"2026-03-05T07:15:23.931648","MEAN_MOTION":14.19326038,"ECCENTRICITY":0.0126144,"INCLINATION":73.7689,"RA_OF_ASC_NODE":6.7492,"ARG_OF_PERICENTER":169.6873,"MEAN_ANOMALY":345.1263,"EPHEMERIS_TYPE":0,"CLASSIFICATION_TYPE":"U","NORAD_CAT_ID":33896,"ELEMENT_SET_NO":999,"REV_AT_EPOCH":87911,"BSTAR":0.00058935,"MEAN_MOTION_DOT":1.313e-5,"MEAN_MOTION_DDOT":0},{"OBJECT_NAME":"COSMOS 2251 DEB","OBJECT_ID":"1993-036DC","EPOCH":"2026-03-05T16:42:13.003776","MEAN_MOTION":14.61976562,"ECCENTRICITY":0.0057061,"INCLINATION":74.0518,"RA_OF_ASC_NODE":287.179,"ARG_OF_PERICENTER":326.6789,"MEAN_ANOMALY":107.7694,"EPHEMERIS_TYPE":0,"CLASSIFICATION_TYPE":"U","NORAD_CAT_ID":33899,"ELEMENT_SET_NO":999,"REV_AT_EPOCH":90051,"BSTAR":0.00064312,"MEAN_MOTION_DOT":3.268e-5,"MEAN_MOTION_DDOT":0},{"OBJECT_NAME":"COSMOS 2251 DEB","OBJECT_ID":"1993-036DD","EPOCH":"2026-03-05T15:29:35.545920","MEAN_MOTION":14.5875082,"ECCENTRICITY":0.004848,"INCLINATION":74.0186,"RA_OF_ASC_NODE":201.8516,"ARG_OF_PERICENTER":330.6129,"MEAN_ANOMALY":45.4573,"EPHEMERIS_TYPE":0,"CLASSIFICATION_TYPE":"U","NORAD_CAT_ID":33900,"ELEMENT_SET_NO":999,"REV_AT_EPOCH":90245,"BSTAR":0.00064271,"MEAN_MOTION_DOT":3.021e-5,"MEAN_MOTION_DDOT":0}]
